sat19228
1 19228U 78100X   20046.98372205 -.00009039  00000-0 -32306-1 0  9994
2 19228  82.4455 135.2151 0161246 204.1043 331.8127 12.90949462454570
